start=new Date('2023-05-22T00:00:00.000Z').valueOf();
sats=[{"INCLINATION":"43.0033","PERIAPSIS":"558.155","SITE":"AFETR","RA_OF_ASC_NODE":"110.3458","ECCENTRICITY":"0.00013880","REV_AT_EPOCH":"1771","REF_FRAME":"TEME","MEAN_ANOMALY":"92.3440","MEAN_ELEMENT_THEORY":"SGP4","TLE_LINE1":"1 55379U 23013BA  23141.92612944 -.00001405  00000-0 -88959-4 0  9991","MEAN_MOTION":"15.02524210","DECAY_DATE":null,"FILE":"3914061","MEAN_MOTION_DOT":"-0.00001405","ARG_OF_PERICENTER":"267.7243","TIME_SYSTEM":"UTC","NORAD_CAT_ID":"55379","GP_ID":"232285721","OBJECT_TYPE":"PAYLOAD","APOAPSIS":"560.081","MEAN_MOTION_DDOT":"0.0000000000000","PERIOD":"95.839","CLASSIFICATION_TYPE":"U","LAUNCH_DATE":"2023-01-26","OBJECT_NAME":"STARLINK-5569","EPOCH":"2023-05-21T22:13:37.583616","RCS_SIZE":"LARGE","CENTER_NAME":"EARTH","ELEMENT_SET_NO":"999","OBJECT_ID":"2023-013BA","SEMIMAJOR_AXIS":"6937.253","EPHEMERIS_TYPE":"0","BSTAR":"-0.00008895900000","TLE_LINE2":"2 55379  43.0033 110.3458 0001388 267.7243  92.3440 15.02524210 17717","COUNTRY_CODE":"US"},{"REV_AT_EPOCH":"1800","REF_FRAME":"TEME","MEAN_ANOMALY":"101.4553","MEAN_ELEMENT_THEORY":"SGP4","TLE_LINE1":"1 55380U 23013BB  23141.87464737 -.00002825  00000-0 -18411-3 0  9994","MEAN_MOTION":"15.04474027","INCLINATION":"43.0036","PERIAPSIS":"552.208","SITE":"AFETR","RA_OF_ASC_NODE":"84.8213","ECCENTRICITY":"0.00013200","ARG_OF_PERICENTER":"258.6142","TIME_SYSTEM":"UTC","NORAD_CAT_ID":"55380","GP_ID":"232286973","DECAY_DATE":null,"FILE":"3914061","MEAN_MOTION_DOT":"-0.00002825","LAUNCH_DATE":"2023-01-26","OBJECT_NAME":"STARLINK-5571","EPOCH":"2023-05-21T20:59:29.532768","RCS_SIZE":"LARGE","OBJECT_TYPE":"PAYLOAD","APOAPSIS":"554.038","MEAN_MOTION_DDOT":"0.0000000000000","PERIOD":"95.715","CLASSIFICATION_TYPE":"U","BSTAR":"-0.00018411000000","TLE_LINE2":"2 55380  43.0036  84.8213 0001320 258.6142 101.4553 15.04474027 18001","COUNTRY_CODE":"US","CENTER_NAME":"EARTH","ELEMENT_SET_NO":"999","OBJECT_ID":"2023-013BB","SEMIMAJOR_AXIS":"6931.258","EPHEMERIS_TYPE":"0"},{"LAUNCH_DATE":"2023-01-26","OBJECT_NAME":"STARLINK-5575","EPOCH":"2023-05-21T22:10:23.970720","RCS_SIZE":"LARGE","OBJECT_TYPE":"PAYLOAD","APOAPSIS":"559.941","MEAN_MOTION_DDOT":"0.0000000000000","PERIOD":"95.837","CLASSIFICATION_TYPE":"U","BSTAR":"0.00011662000000","COUNTRY_CODE":"US","TLE_LINE2":"2 55381  43.0034 110.3290 0001276 272.3735  87.6961 15.02544249 17718","CENTER_NAME":"EARTH","ELEMENT_SET_NO":"999","OBJECT_ID":"2023-013BC","SEMIMAJOR_AXIS":"6937.191","EPHEMERIS_TYPE":"0","REV_AT_EPOCH":"1771","REF_FRAME":"TEME","MEAN_ANOMALY":"87.6961","MEAN_ELEMENT_THEORY":"SGP4","TLE_LINE1":"1 55381U 23013BC  23141.92388855  .00001372  00000-0  11662-3 0  9992","MEAN_MOTION":"15.02544249","INCLINATION":"43.0034","PERIAPSIS":"558.171","SITE":"AFETR","RA_OF_ASC_NODE":"110.3290","ECCENTRICITY":"0.00012760","TIME_SYSTEM":"UTC","ARG_OF_PERICENTER":"272.3735","NORAD_CAT_ID":"55381","GP_ID":"232286723","DECAY_DATE":null,"FILE":"3914061","MEAN_MOTION_DOT":"0.00001372"},{"CLASSIFICATION_TYPE":"U","PERIOD":"95.841","APOAPSIS":"560.608","MEAN_MOTION_DDOT":"0.0000000000000","OBJECT_TYPE":"PAYLOAD","RCS_SIZE":"LARGE","EPOCH":"2023-05-21T22:21:40.225248","OBJECT_NAME":"STARLINK-5576","LAUNCH_DATE":"2023-01-26","EPHEMERIS_TYPE":"0","SEMIMAJOR_AXIS":"6937.359","OBJECT_ID":"2023-013BD","ELEMENT_SET_NO":"999","CENTER_NAME":"EARTH","COUNTRY_CODE":"US","TLE_LINE2":"2 55382  43.0038 110.3893 0001995 259.1000 100.9618 15.02489797 17712","BSTAR":"-0.00041360000000","ECCENTRICITY":"0.00019950","RA_OF_ASC_NODE":"110.3893","SITE":"AFETR","PERIAPSIS":"557.840","INCLINATION":"43.0038","MEAN_MOTION":"15.02489797","TLE_LINE1":"1 55382U 23013BD  23141.93171557 -.00005779  00000-0 -41360-3 0  9998","MEAN_ANOMALY":"100.9618","MEAN_ELEMENT_THEORY":"SGP4","REF_FRAME":"TEME","REV_AT_EPOCH":"1771","MEAN_MOTION_DOT":"-0.00005779","FILE":"3914061","DECAY_DATE":null,"GP_ID":"232285972","NORAD_CAT_ID":"55382","TIME_SYSTEM":"UTC","ARG_OF_PERICENTER":"259.1000"},{"SEMIMAJOR_AXIS":"6937.253","OBJECT_ID":"2023-013BE","EPHEMERIS_TYPE":"0","CENTER_NAME":"EARTH","ELEMENT_SET_NO":"999","BSTAR":"-0.00011472000000","COUNTRY_CODE":"US","TLE_LINE2":"2 55383  43.0028  84.7873 0001611 282.9131  77.1531 15.02524225 18006","APOAPSIS":"560.235","MEAN_MOTION_DDOT":"0.0000000000000","OBJECT_TYPE":"PAYLOAD","CLASSIFICATION_TYPE":"U","PERIOD":"95.839","OBJECT_NAME":"STARLINK-5531","RCS_SIZE":"LARGE","EPOCH":"2023-05-21T20:53:01.534560","LAUNCH_DATE":"2023-01-26","MEAN_MOTION_DOT":"-0.00001753","DECAY_DATE":null,"FILE":"3914061","NORAD_CAT_ID":"55383","GP_ID":"232286222","TIME_SYSTEM":"UTC","ARG_OF_PERICENTER":"282.9131","RA_OF_ASC_NODE":"84.7873","SITE":"AFETR","ECCENTRICITY":"0.00016110","PERIAPSIS":"558.000","INCLINATION":"43.0028","MEAN_ELEMENT_THEORY":"SGP4","MEAN_ANOMALY":"77.1531","MEAN_MOTION":"15.02524225","TLE_LINE1":"1 55383U 23013BE  23141.87015665 -.00001753  00000-0 -11472-3 0  9998","REV_AT_EPOCH":"1800","REF_FRAME":"TEME"},{"OBJECT_NAME":"STARLINK-5537","EPOCH":"2023-05-21T09:30:59.833440","RCS_SIZE":"LARGE","LAUNCH_DATE":"2023-01-26","OBJECT_TYPE":"PAYLOAD","APOAPSIS":"560.210","MEAN_MOTION_DDOT":"0.0000000000000","PERIOD":"95.838","CLASSIFICATION_TYPE":"U","BSTAR":"0.00012658000000","COUNTRY_CODE":"US","TLE_LINE2":"2 55384  43.0023 113.2541 0001618 269.9826  90.0831 15.02533974 17631","OBJECT_ID":"2023-013BF","SEMIMAJOR_AXIS":"6937.223","EPHEMERIS_TYPE":"0","CENTER_NAME":"EARTH","ELEMENT_SET_NO":"999","MEAN_ANOMALY":"90.0831","MEAN_ELEMENT_THEORY":"SGP4","TLE_LINE1":"1 55384U 23013BF  23141.39652585  .00001506  00000-0  12658-3 0  9995","MEAN_MOTION":"15.02533974","REV_AT_EPOCH":"1763","REF_FRAME":"TEME","SITE":"AFETR","RA_OF_ASC_NODE":"113.2541","ECCENTRICITY":"0.00016180","INCLINATION":"43.0023","PERIAPSIS":"557.965","NORAD_CAT_ID":"55384","GP_ID":"232252505","ARG_OF_PERICENTER":"269.9826","TIME_SYSTEM":"UTC","MEAN_MOTION_DOT":"0.00001506","DECAY_DATE":null,"FILE":"3913738"},{"TLE_LINE1":"1 55385U 23013BG  23141.91503069 -.00001231  00000-0 -76089-4 0  9992","MEAN_MOTION":"15.02523632","MEAN_ANOMALY":"94.0141","MEAN_ELEMENT_THEORY":"SGP4","REF_FRAME":"TEME","REV_AT_EPOCH":"1771","ECCENTRICITY":"0.00014500","SITE":"AFETR","RA_OF_ASC_NODE":"110.2616","INCLINATION":"43.0035","PERIAPSIS":"558.114","GP_ID":"232287224","NORAD_CAT_ID":"55385","ARG_OF_PERICENTER":"266.0535","TIME_SYSTEM":"UTC","MEAN_MOTION_DOT":"-0.00001231","FILE":"3914061","DECAY_DATE":null,"EPOCH":"2023-05-21T21:57:38.651616","RCS_SIZE":"LARGE","OBJECT_NAME":"STARLINK-5556","LAUNCH_DATE":"2023-01-26","PERIOD":"95.839","CLASSIFICATION_TYPE":"U","OBJECT_TYPE":"PAYLOAD","APOAPSIS":"560.126","MEAN_MOTION_DDOT":"0.0000000000000","COUNTRY_CODE":"US","TLE_LINE2":"2 55385  43.0035 110.2616 0001450 266.0535  94.0141 15.02523632 17711","BSTAR":"-0.00007608900000","EPHEMERIS_TYPE":"0","OBJECT_ID":"2023-013BG","SEMIMAJOR_AXIS":"6937.255","ELEMENT_SET_NO":"999","CENTER_NAME":"EARTH"},{"INCLINATION":"43.0030","PERIAPSIS":"558.084","ECCENTRICITY":"0.00013620","SITE":"AFETR","RA_OF_ASC_NODE":"113.1777","REF_FRAME":"TEME","REV_AT_EPOCH":"1763","TLE_LINE1":"1 55386U 23013BH  23141.38651167  .00002139  00000-0  17327-3 0  9992","MEAN_MOTION":"15.02552975","MEAN_ELEMENT_THEORY":"SGP4","MEAN_ANOMALY":"87.4408","FILE":"3913738","DECAY_DATE":null,"MEAN_MOTION_DOT":"0.00002139","TIME_SYSTEM":"UTC","ARG_OF_PERICENTER":"272.6278","GP_ID":"232252003","NORAD_CAT_ID":"55386","PERIOD":"95.837","CLASSIFICATION_TYPE":"U","OBJECT_TYPE":"PAYLOAD","APOAPSIS":"559.974","MEAN_MOTION_DDOT":"0.0000000000000","LAUNCH_DATE":"2023-01-26","EPOCH":"2023-05-21T09:16:34.608288","RCS_SIZE":"LARGE","OBJECT_NAME":"STARLINK-5555","ELEMENT_SET_NO":"999","CENTER_NAME":"EARTH","EPHEMERIS_TYPE":"0","OBJECT_ID":"2023-013BH","SEMIMAJOR_AXIS":"6937.164","COUNTRY_CODE":"US","TLE_LINE2":"2 55386  43.0030 113.1777 0001362 272.6278  87.4408 15.02552975 17631","BSTAR":"0.00017327000000"},{"MEAN_MOTION":"15.69909422","TLE_LINE1":"1 55391U 23014A   23141.71900337 -.00000102  00000-0  92393-6 0  9990","MEAN_ANOMALY":"99.2843","MEAN_ELEMENT_THEORY":"SGP4","REF_FRAME":"TEME","REV_AT_EPOCH":"1841","ECCENTRICITY":"0.00037580","RA_OF_ASC_NODE":"140.3200","SITE":"AFWTR","PERIAPSIS":"356.626","INCLINATION":"69.9965","GP_ID":"232285722","NORAD_CAT_ID":"55391","TIME_SYSTEM":"UTC","ARG_OF_PERICENTER":"260.7927","MEAN_MOTION_DOT":"-0.00000102","FILE":"3914061","DECAY_DATE":null,"RCS_SIZE":"LARGE","EPOCH":"2023-05-21T17:15:21.891168","OBJECT_NAME":"STARLINK-5077","LAUNCH_DATE":"2023-01-31","CLASSIFICATION_TYPE":"U","PERIOD":"91.725","APOAPSIS":"361.690","MEAN_MOTION_DDOT":"0.0000000000000","OBJECT_TYPE":"PAYLOAD","TLE_LINE2":"2 55391  69.9965 140.3200 0003758 260.7927  99.2843 15.69909422 18411","COUNTRY_CODE":"US","BSTAR":"0.00000092393000","EPHEMERIS_TYPE":"0","SEMIMAJOR_AXIS":"6737.293","OBJECT_ID":"2023-014A","ELEMENT_SET_NO":"999","CENTER_NAME":"EARTH"},{"RCS_SIZE":"LARGE","EPOCH":"2023-05-21T17:11:59.318592","OBJECT_NAME":"STARLINK-5085","LAUNCH_DATE":"2023-01-31","CLASSIFICATION_TYPE":"U","PERIOD":"91.725","MEAN_MOTION_DDOT":"0.0000000000000","APOAPSIS":"361.252","OBJECT_TYPE":"PAYLOAD","COUNTRY_CODE":"US","TLE_LINE2":"2 55392  69.9969 140.3226 0003125 262.4701  97.6140 15.69913578 18410","BSTAR":"-0.00000087974000","EPHEMERIS_TYPE":"0","SEMIMAJOR_AXIS":"6737.281","OBJECT_ID":"2023-014B","ELEMENT_SET_NO":"999","CENTER_NAME":"EARTH","MEAN_MOTION":"15.69913578","TLE_LINE1":"1 55392U 23014B   23141.71665878 -.00000318  00000-0 -87974-6 0  9998","MEAN_ELEMENT_THEORY":"SGP4","MEAN_ANOMALY":"97.6140","REF_FRAME":"TEME","REV_AT_EPOCH":"1841","ECCENTRICITY":"0.00031250","RA_OF_ASC_NODE":"140.3226","SITE":"AFWTR","PERIAPSIS":"357.041","INCLINATION":"69.9969","GP_ID":"232286974","NORAD_CAT_ID":"55392","ARG_OF_PERICENTER":"262.4701","TIME_SYSTEM":"UTC","MEAN_MOTION_DOT":"-0.00000318","FILE":"3914061","DECAY_DATE":null}];
